[{"OBJECT_NAME":"STARLINK-5458","OBJECT_ID":"2022-175G","EPOCH":"2026-03-09T07:34:54.055488","MEAN_MOTION":15.08830362,"ECCENTRICITY":0.00013343,"INCLINATION":53.2173,"RA_OF_ASC_NODE":45.7281,"ARG_OF_PERICENTER":82.9008,"MEAN_ANOMALY":277.2136,"EPHEMERIS_TYPE":0,"CLASSIFICATION_TYPE":"U","NORAD_CAT_ID":54764,"ELEMENT_SET_NO":999,"REV_AT_EPOCH":17986,"BSTAR":2.3497123e-5,"MEAN_MOTION_DOT":8.6e-7,"MEAN_MOTION_DDOT":0},{"OBJECT_NAME":"PEGASUS DEB","OBJECT_ID":"1994-029GC","EPOCH":"2026-03-09T23:03:07.542144","MEAN_MOTION":13.89172206,"ECCENTRICITY":0.05394822,"INCLINATION":81.4728,"RA_OF_ASC_NODE":252.4149,"ARG_OF_PERICENTER":331.1346,"MEAN_ANOMALY":142.5233,"EPHEMERIS_TYPE":0,"CLASSIFICATION_TYPE":"U","NORAD_CAT_ID":24129,"ELEMENT_SET_NO":999,"REV_AT_EPOCH":48606,"BSTAR":0.00045620982,"MEAN_MOTION_DOT":1.837e-5,"MEAN_MOTION_DDOT":0}]
